{
  "type": "FeatureCollection",
  "features": [
    {
      "type": "Feature",
      "properties": {
        "norad_id": 55973,
        "name": "TIANMU-1 03",
        "group": "weather",
        "lat": 19.96955239490174,
        "lon": 157.6125952663073,
        "alt_km": 440.0508488180767,
        "timestamp": "2025-12-23T09:49:06.719539+00:00",
        "meta_object_name": "TIANMU-1 03",
        "meta_object_id": "2023-039A",
        "meta_epoch": "2025-12-22T22:49:25.918752",
        "meta_mean_motion": 15.41207773,
        "meta_eccentricity": 0.00039177,
        "meta_inclination": 97.511,
        "meta_ra_of_asc_node": 159.8896,
        "meta_arg_of_pericenter": 31.8558,
        "meta_mean_anomaly": 328.2924,
        "meta_ephemeris_type": 0,
        "meta_classification_type": "U",
        "meta_norad_cat_id": 55973,
        "meta_element_set_no": 999,
        "meta_rev_at_epoch": 15363,
        "meta_bstar": 0.00039470656,
        "meta_mean_motion_dot": 0.00016318,
        "meta_mean_motion_ddot": 0,
        "tle_line1": "1 55973U 23039A   25356.95099443  .00016318  00000+0  39471-3 0  9995",
        "tle_line2": "2 55973  97.5110 159.8896 0003917  31.8558 328.2924 15.41207773153635"
      },
      "geometry": {
        "type": "Point",
        "coordinates": [
          157.6125952663073,
          19.96955239490174
        ]
      }
    },
    {
      "type": "Feature",
      "properties": {
        "norad_id": 55974,
        "name": "TIANMU-1 04",
        "group": "weather",
        "lat": 32.28378893787743,
        "lon": -15.675444568164478,
        "alt_km": 441.4112852443659,
        "timestamp": "2025-12-23T09:49:06.719550+00:00",
        "meta_object_name": "TIANMU-1 04",
        "meta_object_id": "2023-039B",
        "meta_epoch": "2025-12-22T22:16:36.301152",
        "meta_mean_motion": 15.41548941,
        "meta_eccentricity": 0.00045233,
        "meta_inclination": 97.5042,
        "meta_ra_of_asc_node": 159.0531,
        "meta_arg_of_pericenter": 25.2016,
        "meta_mean_anomaly": 334.945,
        "meta_ephemeris_type": 0,
        "meta_classification_type": "U",
        "meta_norad_cat_id": 55974,
        "meta_element_set_no": 999,
        "meta_rev_at_epoch": 15363,
        "meta_bstar": 0.0003944484,
        "meta_mean_motion_dot": 0.00016495,
        "meta_mean_motion_ddot": 0,
        "tle_line1": "1 55974U 23039B   25356.92819793  .00016495  00000+0  39445-3 0  9998",
        "tle_line2": "2 55974  97.5042 159.0531 0004523  25.2016 334.9450 15.41548941153631"
      },
      "geometry": {
        "type": "Point",
        "coordinates": [
          -15.675444568164478,
          32.28378893787743
        ]
      }
    },
    {
      "type": "Feature",
      "properties": {
        "norad_id": 55975,
        "name": "TIANMU-1 05",
        "group": "weather",
        "lat": 15.21001725993404,
        "lon": -17.904677703957294,
        "alt_km": 444.75580255738805,
        "timestamp": "2025-12-23T09:49:06.719562+00:00",
        "meta_object_name": "TIANMU-1 05",
        "meta_object_id": "2023-039C",
        "meta_epoch": "2025-12-22T23:45:27.359136",
        "meta_mean_motion": 15.41166447,
        "meta_eccentricity": 0.00040322,
        "meta_inclination": 97.5088,
        "meta_ra_of_asc_node": 159.6093,
        "meta_arg_of_pericenter": 50.2084,
        "meta_mean_anomaly": 309.9517,
        "meta_ephemeris_type": 0,
        "meta_classification_type": "U",
        "meta_norad_cat_id": 55975,
        "meta_element_set_no": 999,
        "meta_rev_at_epoch": 15362,
        "meta_bstar": 0.00040005396,
        "meta_mean_motion_dot": 0.00016518,
        "meta_mean_motion_ddot": 0,
        "tle_line1": "1 55975U 23039C   25356.98989999  .00016518  00000+0  40005-3 0  9991",
        "tle_line2": "2 55975  97.5088 159.6093 0004032  50.2084 309.9517 15.41166447153621"
      },
      "geometry": {
        "type": "Point",
        "coordinates": [
          -17.904677703957294,
          15.21001725993404
        ]
      }
    },
    {
      "type": "Feature",
      "properties": {
        "norad_id": 55976,
        "name": "TIANMU-1 06",
        "group": "weather",
        "lat": 42.22191645367846,
        "lon": -12.610469654864657,
        "alt_km": 438.20209668395546,
        "timestamp": "2025-12-23T09:49:06.719573+00:00",
        "meta_object_name": "TIANMU-1 06",
        "meta_object_id": "2023-039D",
        "meta_epoch": "2025-12-22T22:19:14.733696",
        "meta_mean_motion": 15.41600282,
        "meta_eccentricity": 0.00043047,
        "meta_inclination": 97.5099,
        "meta_ra_of_asc_node": 160.0213,
        "meta_arg_of_pericenter": 44.5003,
        "meta_mean_anomaly": 315.6588,
        "meta_ephemeris_type": 0,
        "meta_classification_type": "U",
        "meta_norad_cat_id": 55976,
        "meta_element_set_no": 999,
        "meta_rev_at_epoch": 15363,
        "meta_bstar": 0.00039211338,
        "meta_mean_motion_dot": 0.00016424,
        "meta_mean_motion_ddot": 0,
        "tle_line1": "1 55976U 23039D   25356.93003164  .00016424  00000+0  39211-3 0  9991",
        "tle_line2": "2 55976  97.5099 160.0213 0004304  44.5003 315.6588 15.41600282153636"
      },
      "geometry": {
        "type": "Point",
        "coordinates": [
          -12.610469654864657,
          42.22191645367846
        ]
      }
    },
    {
      "type": "Feature",
      "properties": {
        "norad_id": 56232,
        "name": "FENGYUN 3G",
        "group": "weather",
        "lat": 41.486673975187706,
        "lon": -139.66440676121607,
        "alt_km": 403.05469236592126,
        "timestamp": "2025-12-23T09:49:06.719584+00:00",
        "meta_object_name": "FENGYUN 3G",
        "meta_object_id": "2023-055A",
        "meta_epoch": "2025-12-22T22:45:38.646144",
        "meta_mean_motion": 15.54225863,
        "meta_eccentricity": 0.00092784,
        "meta_inclination": 49.9923,
        "meta_ra_of_asc_node": 174.7496,
        "meta_arg_of_pericenter": 194.3809,
        "meta_mean_anomaly": 165.6896,
        "meta_ephemeris_type": 0,
        "meta_classification_type": "U",
        "meta_norad_cat_id": 56232,
        "meta_element_set_no": 999,
        "meta_rev_at_epoch": 15261,
        "meta_bstar": 0.00049139864,
        "meta_mean_motion_dot": 0.00032402,
        "meta_mean_motion_ddot": 0,
        "tle_line1": "1 56232U 23055A   25356.94836396  .00032402  00000+0  49140-3 0  9993",
        "tle_line2": "2 56232  49.9923 174.7496 0009278 194.3809 165.6896 15.54225863152611"
      },
      "geometry": {
        "type": "Point",
        "coordinates": [
          -139.66440676121607,
          41.486673975187706
        ]
      }
    },
    {
      "type": "Feature",
      "properties": {
        "norad_id": 57166,
        "name": "METEOR-M2 3",
        "group": "weather",
        "lat": -12.672496259623962,
        "lon": -131.19707894788692,
        "alt_km": 818.1214428468884,
        "timestamp": "2025-12-23T09:49:06.719594+00:00",
        "meta_object_name": "METEOR-M2 3",
        "meta_object_id": "2023-091A",
        "meta_epoch": "2025-12-22T22:47:54.047904",
        "meta_mean_motion": 14.24027289,
        "meta_eccentricity": 0.00033588,
        "meta_inclination": 98.6364,
        "meta_ra_of_asc_node": 50.3103,
        "meta_arg_of_pericenter": 337.5057,
        "meta_mean_anomaly": 22.5974,
        "meta_ephemeris_type": 0,
        "meta_classification_type": "U",
        "meta_norad_cat_id": 57166,
        "meta_element_set_no": 999,
        "meta_rev_at_epoch": 12943,
        "meta_bstar": 2.947555e-05,
        "meta_mean_motion_dot": 2.4e-07,
        "meta_mean_motion_ddot": 0,
        "tle_line1": "1 57166U 23091A   25356.94993111  .00000024  00000+0  29476-4 0  9995",
        "tle_line2": "2 57166  98.6364  50.3103 0003358 337.5057  22.5974 14.24027289129431"
      },
      "geometry": {
        "type": "Point",
        "coordinates": [
          -131.19707894788692,
          -12.672496259623962
        ]
      }
    },
    {
      "type": "Feature",
      "properties": {
        "norad_id": 57399,
        "name": "TIANMU-1 07",
        "group": "weather",
        "lat": 51.42309171747366,
        "lon": 37.79361609853336,
        "alt_km": 472.9179406686526,
        "timestamp": "2025-12-23T09:49:06.719605+00:00",
        "meta_object_name": "TIANMU-1 07",
        "meta_object_id": "2023-101A",
        "meta_epoch": "2025-12-22T22:35:29.743872",
        "meta_mean_motion": 15.28209172,
        "meta_eccentricity": 0.0005137,
        "meta_inclination": 97.2857,
        "meta_ra_of_asc_node": 46.5662,
        "meta_arg_of_pericenter": 55.694,
        "meta_mean_anomaly": 304.4785,
        "meta_ephemeris_type": 0,
        "meta_classification_type": "U",
        "meta_norad_cat_id": 57399,
        "meta_element_set_no": 999,
        "meta_rev_at_epoch": 13471,
        "meta_bstar": 0.00029252985,
        "meta_mean_motion_dot": 7.973e-05,
        "meta_mean_motion_ddot": 0,
        "tle_line1": "1 57399U 23101A   25356.94131648  .00007973  00000+0  29253-3 0  9996",
        "tle_line2": "2 57399  97.2857  46.5662 0005137  55.6940 304.4785 15.28209172134711"
      },
      "geometry": {
        "type": "Point",
        "coordinates": [
          37.79361609853336,
          51.42309171747366
        ]
      }
    }
  ]
}